[{"OBJECT_NAME":"JY1SAT (JO-97)","OBJECT_ID":"2018-099AX","EPOCH":"2026-03-09T16:28:19.890048","MEAN_MOTION":15.30302629,"ECCENTRICITY":0.00047232,"INCLINATION":97.4249,"RA_OF_ASC_NODE":131.3625,"ARG_OF_PERICENTER":256.6795,"MEAN_ANOMALY":103.3919,"EPHEMERIS_TYPE":0,"CLASSIFICATION_TYPE":"U","NORAD_CAT_ID":43803,"ELEMENT_SET_NO":999,"REV_AT_EPOCH":39839,"BSTAR":0.00060804308,"MEAN_MOTION_DOT":0.00017774,"MEAN_MOTION_DDOT":0},{"OBJECT_NAME":"STARLINK-34618","OBJECT_ID":"2025-147R","EPOCH":"2026-03-09T18:16:11.809056","MEAN_MOTION":15.30198566,"ECCENTRICITY":7.638e-5,"INCLINATION":53.1582,"RA_OF_ASC_NODE":242.3526,"ARG_OF_PERICENTER":48.9361,"MEAN_ANOMALY":311.1706,"EPHEMERIS_TYPE":0,"CLASSIFICATION_TYPE":"U","NORAD_CAT_ID":64770,"ELEMENT_SET_NO":999,"REV_AT_EPOCH":3869,"BSTAR":0.0012308879,"MEAN_MOTION_DOT":0.00036273,"MEAN_MOTION_DDOT":0}]
